{
    "links": {
        "self": "http://www.neowsapp.com/rest/v1/neo/3530351?api_key=iIulBulltgU6a56xZRHN4H3l9WmuAYTsLGpBGhQ2"
    },
    "id": "3530351",
    "neo_reference_id": "3530351",
    "name": "(2010 MC)",
    "designation": "2010 MC",
    "nasa_jpl_url": "http://ssd.jpl.nasa.gov/sbdb.cgi?sstr=3530351",
    "absolute_magnitude_h": 24.6,
    "estimated_diameter": {
        "kilometers": {
            "estimated_diameter_min": 0.0319561887,
            "estimated_diameter_max": 0.0714562102
        },
        "meters": {
            "estimated_diameter_min": 31.9561886721,
            "estimated_diameter_max": 71.4562101727
        },
        "miles": {
            "estimated_diameter_min": 0.0198566489,
            "estimated_diameter_max": 0.0444008168
        },
        "feet": {
            "estimated_diameter_min": 104.8431420431,
            "estimated_diameter_max": 234.436392583
        }
    },
    "is_potentially_hazardous_asteroid": false,
    "close_approach_data": [
        {
            "close_approach_date": "2010-06-17",
            "close_approach_date_full": "2010-Jun-17 04:05",
            "epoch_date_close_approach": 1276747500000,
            "relative_velocity": {
                "kilometers_per_second": "6.3167514125",
                "kilometers_per_hour": "22740.3050850484",
                "miles_per_hour": "14129.9412346513"
            },
            "miss_distance": {
                "astronomical": "0.0546357546",
                "lunar": "21.2533085394",
                "kilometers": "8173392.514002702",
                "miles": "5078710.6052612076"
            },
            "orbiting_body": "Earth"
        }
    ],
    "orbital_data": {
        "orbit_id": "9",
        "orbit_determination_date": "2017-04-06 08:57:17",
        "first_observation_date": "2010-06-16",
        "last_observation_date": "2010-06-23",
        "data_arc_in_days": 7,
        "observations_used": 48,
        "orbit_uncertainty": "8",
        "minimum_orbit_intersection": ".0519308",
        "jupiter_tisserand_invariant": "4.686",
        "epoch_osculation": "2455365.5",
        "eccentricity": ".2731812889887427",
        "semi_major_axis": "1.408827188301983",
        "inclination": "7.504431097259809",
        "ascending_node_longitude": "98.23686879199943",
        "orbital_period": "610.7802892395117",
        "perihelion_distance": "1.023961961039261",
        "perihelion_argument": "135.0604664622622",
        "aphelion_distance": "1.793692415564705",
        "perihelion_time": "2455334.770892821037",
        "mean_anomaly": "18.11204254511991",
        "mean_motion": ".589409983167989",
        "equinox": "J2000",
        "orbit_class": {
            "orbit_class_type": "AMO",
            "orbit_class_description": "Near-Earth asteroid orbits similar to that of 1221 Amor",
            "orbit_class_range": "1.017 AU < q (perihelion) < 1.3 AU"
        }
    },
    "is_sentry_object": false
}